[
    {
        "icaoId": "LZKZ",
        "receiptTime": "2026-04-06T18:01:22.734Z",
        "obsTime": 1775498400,
        "reportTime": "2026-04-06T18:00:00.000Z",
        "temp": 11,
        "dewp": -7,
        "wdir": 360,
        "wspd": 13,
        "visib": "6+",
        "altim": 1020,
        "qcField": 16,
        "metarType": "METAR",
        "rawOb": "METAR LZKZ 061800Z 36013KT CAVOK 11/M07 Q1020 NOSIG",
        "lat": 48.661,
        "lon": 21.24,
        "elev": 227,
        "name": "Košice Intl, KI, SK",
        "cover": "CAVOK",
        "clouds": [],
        "fltCat": "VFR"
    },
    {
        "icaoId": "LZKZ",
        "receiptTime": "2026-04-06T17:31:09.607Z",
        "obsTime": 1775496600,
        "reportTime": "2026-04-06T17:30:00.000Z",
        "temp": 12,
        "dewp": -7,
        "wdir": 350,
        "wspd": 15,
        "visib": "6+",
        "altim": 1020,
        "qcField": 16,
        "metarType": "METAR",
        "rawOb": "METAR LZKZ 061730Z 35015KT CAVOK 12/M07 Q1020 NOSIG",
        "lat": 48.661,
        "lon": 21.24,
        "elev": 227,
        "name": "Košice Intl, KI, SK",
        "cover": "CAVOK",
        "clouds": [],
        "fltCat": "VFR"
    }
]
